NORAD_CAT_ID,OBJECT_NAME,OBJECT_TYPE,EPOCH,MEAN_MOTION,ECCENTRICITY,INCLINATION,RA_OF_ASC_NODE,ARG_OF_PERICENTER,MEAN_ANOMALY,BSTAR,MEAN_MOTION_DOT,MEAN_MOTION_DDOT,TLE_LINE0,TLE_LINE1,TLE_LINE2,SEMIMAJOR_AXIS,PERIOD,APOGEE,PERIGEE,DECAYED
53827.0,STARLINK-4764,PAYLOAD,2024-05-14 22:03:04,15.08860868,0.0002256,53.2201,43.971,86.7963,273.3288,-0.00015547,-2.763e-05,0.0,0 STARLINK-4764,1 53827U 22114K   24135.91880084 -.00002763  00000-0 -15547-3 0  9993,2 53827  53.2201  43.9710 0002256  86.7963 273.3288 15.08860868 92620,6917.817,95.436,541.242,538.121,0.0
53827.0,STARLINK-4764,PAYLOAD,2024-05-15 02:49:13,15.08871162,0.0001609,53.219,43.0748,79.6774,280.4399,0.00025038,3.702e-05,0.0,0 STARLINK-4764,1 53827U 22114K   24136.11751499  .00003702  00000-0  25038-3 0  9991,2 53827  53.2190  43.0748 0001609  79.6774 280.4399 15.08871162 92116,6917.785,95.436,540.763,538.537,0.0
53827.0,STARLINK-4764,PAYLOAD,2024-05-15 21:53:50,15.08850487,0.0002079,53.2196,39.5036,152.1734,207.937,5.9783e-05,6.64e-06,0.0,0 STARLINK-4764,1 53827U 22114K   24136.91238992  .00000664  00000-0  59783-4 0  9996,2 53827  53.2196  39.5036 0002079 152.1734 207.9370 15.08850487 92779,6917.848,95.437,541.152,538.275,0.0
53827.0,STARLINK-4764,PAYLOAD,2024-05-16 01:04:37,15.08856351,0.0001549,53.2185,38.9106,69.7751,290.3408,0.0004572,6.999e-05,0.0,0 STARLINK-4764,1 53827U 22114K   24137.04487502  .00006999  00000-0  45720-3 0  9996,2 53827  53.2185  38.9106 0001549  69.7751 290.3408 15.08856351 92258,6917.83,95.437,540.767,538.624,0.0
53827.0,STARLINK-4764,PAYLOAD,2024-05-16 16:58:28,15.08850095,0.0001307,53.219,35.9399,99.4168,260.6972,0.00040264,6.128e-05,0.0,0 STARLINK-4764,1 53827U 22114K   24137.70727295  .00006128  00000-0  40264-3 0  9997,2 53827  53.2190  35.9399 0001307  99.4168 260.6972 15.08850095 92355,6917.85,95.437,540.619,538.81,0.0
53827.0,STARLINK-4764,PAYLOAD,2024-05-17 10:27:43,15.08834129,0.000161,53.2184,32.6667,102.2673,257.85,2.4859e-05,1.08e-06,0.0,0 STARLINK-4764,1 53827U 22114K   24138.43591755  .00000108  00000-0  24859-4 0  9993,2 53827  53.2184  32.6667 0001610 102.2673 257.8500 15.08834129 92468,6917.898,95.438,540.877,538.65,0.0
53827.0,STARLINK-4764,PAYLOAD,2024-05-17 23:10:48,15.08822219,0.0001153,53.2179,30.2876,95.9874,264.125,0.00011803,1.59e-05,0.0,0 STARLINK-4764,1 53827U 22114K   24138.96584388  .00001590  00000-0  11803-3 0  9995,2 53827  53.2179  30.2876 0001153  95.9874 264.1250 15.08822219 93080,6917.935,95.439,540.597,539.002,0.0
53827.0,STARLINK-4764,PAYLOAD,2024-05-18 10:18:30,15.08847061,0.0001776,53.2185,28.2041,103.7443,256.3747,0.0011629,0.00018272,0.0,0 STARLINK-4764,1 53827U 22114K   24139.42952397  .00018272  00000-0  11629-2 0  9996,2 53827  53.2185  28.2041 0001776 103.7443 256.3747 15.08847061 92613,6917.859,95.437,540.952,538.495,0.0
53827.0,STARLINK-4764,PAYLOAD,2024-05-18 21:26:12,15.08877054,0.000161,53.2173,26.1248,95.9987,264.1189,0.0014887,0.00023508,0.0,0 STARLINK-4764,1 53827U 22114K   24139.89319537  .00023508  00000-0  14887-2 0  9997,2 53827  53.2173  26.1248 0001610  95.9987 264.1189 15.08877054 93228,6917.767,95.435,540.746,538.518,0.0
53827.0,STARLINK-4764,PAYLOAD,2024-05-18 23:01:35,15.08884398,0.000165,53.2187,25.8291,90.6117,269.5064,0.001694,0.00026808,0.0,0 STARLINK-4764,1 53827U 22114K   24139.95943354  .00026808  00000-0  16940-2 0  9992,2 53827  53.2187  25.8291 0001650  90.6117 269.5064 15.08884398 92698,6917.745,95.435,540.751,538.468,0.0
53827.0,STARLINK-4764,PAYLOAD,2024-05-19 21:16:59,15.0882422,0.0001197,53.2173,21.6643,93.5179,266.595,0.0010587,0.00016594,0.0,0 STARLINK-4764,1 53827U 22114K   24140.88679975  .00016594  00000-0  10587-2 0  9993,2 53827  53.2173  21.6643 0001197  93.5179 266.5950 15.08824220 92839,6917.929,95.439,540.622,538.966,0.0
53827.0,STARLINK-4764,PAYLOAD,2024-05-20 02:03:09,15.08828189,0.0001249,53.2181,20.7722,95.658,264.4555,0.0009265,0.00014483,0.0,0 STARLINK-4764,1 53827U 22114K   24141.08552170  .00014483  00000-0  92650-3 0  9990,2 53827  53.2181  20.7722 0001249  95.6580 264.4555 15.08828189 93403,6917.916,95.438,540.646,538.917,0.0
53827.0,STARLINK-4764,PAYLOAD,2024-05-20 21:07:47,15.08835344,0.0001381,53.2178,17.2027,99.3091,260.8057,0.00061066,9.443e-05,0.0,0 STARLINK-4764,1 53827U 22114K   24141.88040838  .00009443  00000-0  61066-3 0  9998,2 53827  53.2178  17.2027 0001381  99.3091 260.8057 15.08835344 92983,6917.895,95.438,540.715,538.804,0.0
53827.0,STARLINK-4764,PAYLOAD,2024-05-21 20:58:34,15.08843495,0.0001311,53.2177,12.7429,98.0437,262.0704,0.00040295,6.131e-05,0.0,0 STARLINK-4764,1 53827U 22114K   24142.87400963  .00006131  00000-0  40295-3 0  9999,2 53827  53.2177  12.7429 0001311  98.0437 262.0704 15.08843495 93138,6917.87,95.437,540.642,538.828,0.0
53827.0,STARLINK-4764,PAYLOAD,2024-05-21 22:33:57,15.08844579,0.0001263,53.2175,12.4458,90.1361,269.9776,0.00040548,6.172e-05,0.0,0 STARLINK-4764,1 53827U 22114K   24142.94024957  .00006172  00000-0  40548-3 0  9998,2 53827  53.2175  12.4458 0001263  90.1361 269.9776 15.08844579 93689,6917.866,95.437,540.605,538.858,0.0
53827.0,STARLINK-4764,PAYLOAD,2024-05-22 20:49:21,15.08841656,0.0001452,53.2178,8.2898,116.7216,243.3925,0.0001796,2.572e-05,0.0,0 STARLINK-4764,1 53827U 22114K   24143.86761092  .00002572  00000-0  17960-3 0  9990,2 53827  53.2178   8.2898 0001452 116.7216 243.3925 15.08841656 93288,6917.875,95.437,540.745,538.736,0.0
53827.0,STARLINK-4764,PAYLOAD,2024-05-23 00:00:07,15.08846258,0.0001269,53.2173,7.6912,88.9152,271.1986,0.00030495,4.57e-05,0.0,0 STARLINK-4764,1 53827U 22114K   24144.00009055  .00004570  00000-0  30495-3 0  9999,2 53827  53.2173   7.6912 0001269  88.9152 271.1986 15.08846258 93849,6917.861,95.437,540.604,538.848,0.0
53827.0,STARLINK-4764,PAYLOAD,2024-05-23 20:40:08,15.08846537,0.0001324,53.2169,3.825,74.9313,285.1826,0.00025337,3.747e-05,0.0,0 STARLINK-4764,1 53827U 22114K   24144.86120925  .00003747  00000-0  25337-3 0  9997,2 53827  53.2169   3.8250 0001324  74.9313 285.1826 15.08846537 93975,6917.86,95.437,540.641,538.809,0.0
53827.0,STARLINK-4764,PAYLOAD,2024-05-23 22:15:31,15.08850022,0.0001357,53.2168,3.5278,75.846,284.2683,0.00034683,5.238e-05,0.0,0 STARLINK-4764,1 53827U 22114K   24144.92744831  .00005238  00000-0  34683-3 0  9993,2 53827  53.2168   3.5278 0001357  75.8460 284.2683 15.08850022 93447,6917.85,95.437,540.654,538.776,0.0
53827.0,STARLINK-4764,PAYLOAD,2024-05-24 14:09:23,15.08839381,0.0001458,53.2173,0.5545,74.5241,285.5912,5.3759e-05,5.68e-06,0.0,0 STARLINK-4764,1 53827U 22114K   24145.58985367  .00000568  00000-0  53759-4 0  9994,2 53827  53.2173   0.5545 0001458  74.5241 285.5912 15.08839381 94087,6917.882,95.438,540.756,538.739,0.0
53827.0,STARLINK-4764,PAYLOAD,2024-05-24 20:30:55,15.08840739,0.0001273,53.2171,359.3645,84.4212,275.6926,5.8163e-05,6.38e-06,0.0,0 STARLINK-4764,1 53827U 22114K   24145.85481240  .00000638  00000-0  58163-4 0  9997,2 53827  53.2171 359.3645 0001273  84.4212 275.6926 15.08840739 93582,6917.878,95.438,540.624,538.862,0.0
53827.0,STARLINK-4764,PAYLOAD,2024-05-25 07:38:37,15.08842745,0.0001108,53.2176,357.284,66.7836,293.3273,0.00014791,2.067e-05,0.0,0 STARLINK-4764,1 53827U 22114K   24146.31849303  .00002067  00000-0  14791-3 0  9993,2 53827  53.2176 357.2840 0001108  66.7836 293.3273 15.08842745 94192,6917.872,95.437,540.503,538.97,0.0
53827.0,STARLINK-4764,PAYLOAD,2024-05-26 13:50:57,15.08842813,0.0001137,53.2178,351.6341,71.6115,288.5,0.00016056,2.269e-05,0.0,0 STARLINK-4764,1 53827U 22114K   24147.57705585  .00002269  00000-0  16056-3 0  9995,2 53827  53.2178 351.6341 0001137  71.6115 288.5000 15.08842813 94386,6917.872,95.437,540.523,538.95,0.0
53827.0,STARLINK-4764,PAYLOAD,2024-05-26 20:12:29,15.08846512,0.0001171,53.2181,350.4445,75.5975,284.5147,0.00018835,2.712e-05,0.0,0 STARLINK-4764,1 53827U 22114K   24147.84201373  .00002712  00000-0  18835-3 0  9991,2 53827  53.2181 350.4445 0001171  75.5975 284.5147 15.08846512 93889,6917.86,95.437,540.536,538.915,0.0
53827.0,STARLINK-4764,PAYLOAD,2024-05-27 20:03:17,15.08838889,0.0001294,53.219,345.9868,93.371,266.743,7.7448e-05,9.45e-06,0.0,0 STARLINK-4764,1 53827U 22114K   24148.83561767  .00000945  00000-0  77448-4 0  9999,2 53827  53.2190 345.9868 0001294  93.3710 266.7430 15.08838889 94031,6917.884,95.438,540.644,538.854,0.0
53827.0,STARLINK-4764,PAYLOAD,2024-05-28 05:35:36,15.08840272,0.000129,53.2189,344.2027,92.6535,267.4605,7.4248e-05,8.94e-06,0.0,0 STARLINK-4764,1 53827U 22114K   24149.23305681  .00000894  00000-0  74248-4 0  9993,2 53827  53.2189 344.2027 0001290  92.6535 267.4605 15.08840272 94638,6917.88,95.438,540.637,538.852,0.0
53827.0,STARLINK-4764,PAYLOAD,2024-05-28 18:18:41,15.08841258,0.0001333,53.219,341.8229,103.548,256.566,4.3305e-05,4.01e-06,0.0,0 STARLINK-4764,1 53827U 22114K   24149.76297552  .00000401  00000-0  43305-4 0  9992,2 53827  53.2190 341.8229 0001333 103.5480 256.5660 15.08841258 94710,6917.877,95.437,540.664,538.819,0.0
53827.0,STARLINK-4764,PAYLOAD,2024-05-29 18:09:28,15.08835509,0.0001261,53.2168,337.3583,112.7234,247.3892,-1.2948e-05,-4.94e-06,0.0,0 STARLINK-4764,1 53827U 22114K   24150.75658098 -.00000494  00000-0 -12948-4 0  9992,2 53827  53.2168 337.3583 0001261 112.7234 247.3892 15.08835509 94321,6917.894,95.438,540.631,538.887,0.0
53827.0,STARLINK-4764,PAYLOAD,2024-05-30 19:35:37,15.0886511,0.0001402,53.2167,332.5994,134.2638,225.8469,-0.00011374,-2.099e-05,0.0,0 STARLINK-4764,1 53827U 22114K   24151.81640693 -.00002099  00000-0 -11374-3 0  9996,2 53827  53.2167 332.5994 0001402 134.2638 225.8469 15.08865110 94486,6917.804,95.436,540.639,538.699,0.0
53827.0,STARLINK-4764,PAYLOAD,2024-05-30 21:11:00,15.08856278,0.0001359,53.2168,332.3027,128.821,231.2904,7.5838e-06,-1.67e-06,0.0,0 STARLINK-4764,1 53827U 22114K   24151.88264969 -.00000167  00000-0  75838-5 0  9991,2 53827  53.2168 332.3027 0001359 128.8210 231.2904 15.08856278 95030,6917.831,95.437,540.636,538.756,0.0
